ONEWEB-0035             
1 45143U 20008N   25327.37646128  .00000705  00000+0  19839-2 0  9996
2 45143  87.8801  77.3142 0001730 101.1658 258.9664 13.10375980280982
ONEWEB-0036             
1 45144U 20008P   25327.36649089  .00000581  00000+0  16292-2 0  9997
2 45144  87.8809  77.2715 0001585 113.6357 246.4937 13.10375732281417
ONEWEB-0038             
1 45145U 20008Q   25327.32019932  .00000297  00000+0  80067-3 0  9998
2 45145  87.8869  62.0555 0003525 107.9318 252.2194 13.11418881283345
ONEWEB-0039             
1 45146U 20008R   25327.34905271 -.00000386  00000+0 -11426-2 0  9994
2 45146  87.8817  77.2913 0001779 119.8689 240.2616 13.10375401281205
ONEWEB-0040             
1 45147U 20008S   25327.34239780 -.00000595  00000+0 -17420-2 0  9992
2 45147  87.8803  77.3197 0001688 104.9895 255.1419 13.10372675280901
ONEWEB-0043             
1 45149U 20008U   25327.34405959 -.00000500  00000+0 -14696-2 0  9995
2 45149  87.8805  77.3002 0001568 120.5628 239.5654 13.10373490281224
ONEWEB-0044             
1 45150U 20008V   25327.37228646  .00000650  00000+0  18267-2 0  9998
2 45150  87.8807  77.2856 0001641 114.9904 245.1394 13.10376714281529
ONEWEB-0045             
1 45151U 20008W   25327.31496082  .00000110  00000+0  27591-3 0  9996
2 45151  87.8881  62.0381 0001882 108.1856 251.9477 13.11418984283420
ONEWEB-0047             
1 45152U 20008X   25327.36566538  .00000504  00000+0  14073-2 0  9993
2 45152  87.8803  77.2972 0001706 110.5318 249.5993 13.10375452281249
ONEWEB-0048             
1 45153U 20008Y   25327.28430279  .00000200  00000+0  53672-3 0  9999
2 45153  87.8806  77.3394 0001642 103.7085 256.4226 13.10378183280841
ONEWEB-0049             
1 45154U 20008Z   25327.36316229  .00000357  00000+0  98508-3 0  9997
2 45154  87.8801  77.3139 0001277 114.8404 245.2856 13.10377859281076
ONEWEB-0051             
1 45155U 20008AA  25327.31326119 -.00000049  00000+0 -17359-3 0  9997
2 45155  87.8861  62.0638 0001764 104.2087 255.9237 13.11418902284103
ONEWEB-0052             
1 45156U 20008AB  25327.35817955  .00000176  00000+0  46839-3 0  9999
2 45156  87.8812  77.2732 0001298 115.5245 244.6016 13.10376822280981
ONEWEB-0053             
1 45157U 20008AC  25327.34073609 -.00000595  00000+0 -17411-2 0  9999
2 45157  87.8802  77.3239 0001926 113.0274 247.1056 13.10372598280952
ONEWEB-0054             
1 45158U 20008AD  25327.37562381  .00000738  00000+0  20782-2 0  9995
2 45158  87.8802  77.2893 0001664 105.6556 254.4755 13.10372770281070
ONEWEB-0056             
1 45159U 20008AE  25327.35651797  .00000007  00000+0 -16682-4 0  9990
2 45159  87.8801  77.2911 0001509 104.6721 255.4573 13.10376207281227
ONEWEB-0057             
1 45160U 20008AF  25327.36398399  .00000413  00000+0  11457-2 0  9992
2 45160  87.8805  77.3029 0001602 111.0826 249.0473 13.10378709281391
