[{"OBJECT_NAME":"ONEWEB-0035","OBJECT_ID":"2020-008N","EPOCH":"2025-11-23T09:02:06.254592","MEAN_MOTION":13.1037598,"ECCENTRICITY":0.000173,"INCLINATION":87.8801,"RA_OF_ASC_NODE":77.3142,"ARG_OF_PERICENTER":101.1658,"MEAN_ANOMALY":258.9664,"EPHEMERIS_TYPE":0,"CLASSIFICATION_TYPE":"U","NORAD_CAT_ID":45143,"ELEMENT_SET_NO":999,"REV_AT_EPOCH":28098,"BSTAR":0.0019839,"MEAN_MOTION_DOT":7.05e-6,"MEAN_MOTION_DDOT":0},{"OBJECT_NAME":"ONEWEB-0036","OBJECT_ID":"2020-008P","EPOCH":"2025-11-23T08:47:44.812896","MEAN_MOTION":13.10375732,"ECCENTRICITY":0.0001585,"INCLINATION":87.8809,"RA_OF_ASC_NODE":77.2715,"ARG_OF_PERICENTER":113.6357,"MEAN_ANOMALY":246.4937,"EPHEMERIS_TYPE":0,"CLASSIFICATION_TYPE":"U","NORAD_CAT_ID":45144,"ELEMENT_SET_NO":999,"REV_AT_EPOCH":28141,"BSTAR":0.0016292,"MEAN_MOTION_DOT":5.81e-6,"MEAN_MOTION_DDOT":0},{"OBJECT_NAME":"ONEWEB-0038","OBJECT_ID":"2020-008Q","EPOCH":"2025-11-23T07:41:05.221248","MEAN_MOTION":13.11418881,"ECCENTRICITY":0.0003525,"INCLINATION":87.8869,"RA_OF_ASC_NODE":62.0555,"ARG_OF_PERICENTER":107.9318,"MEAN_ANOMALY":252.2194,"EPHEMERIS_TYPE":0,"CLASSIFICATION_TYPE":"U","NORAD_CAT_ID":45145,"ELEMENT_SET_NO":999,"REV_AT_EPOCH":28334,"BSTAR":0.00080067,"MEAN_MOTION_DOT":2.97e-6,"MEAN_MOTION_DDOT":0},{"OBJECT_NAME":"ONEWEB-0039","OBJECT_ID":"2020-008R","EPOCH":"2025-11-23T08:22:38.154144","MEAN_MOTION":13.10375401,"ECCENTRICITY":0.0001779,"INCLINATION":87.8817,"RA_OF_ASC_NODE":77.2913,"ARG_OF_PERICENTER":119.8689,"MEAN_ANOMALY":240.2616,"EPHEMERIS_TYPE":0,"CLASSIFICATION_TYPE":"U","NORAD_CAT_ID":45146,"ELEMENT_SET_NO":999,"REV_AT_EPOCH":28120,"BSTAR":-0.0011426,"MEAN_MOTION_DOT":-3.86e-6,"MEAN_MOTION_DDOT":0},{"OBJECT_NAME":"ONEWEB-0040","OBJECT_ID":"2020-008S","EPOCH":"2025-11-23T08:13:03.169920","MEAN_MOTION":13.10372675,"ECCENTRICITY":0.0001688,"INCLINATION":87.8803,"RA_OF_ASC_NODE":77.3197,"ARG_OF_PERICENTER":104.9895,"MEAN_ANOMALY":255.1419,"EPHEMERIS_TYPE":0,"CLASSIFICATION_TYPE":"U","NORAD_CAT_ID":45147,"ELEMENT_SET_NO":999,"REV_AT_EPOCH":28090,"BSTAR":-0.001742,"MEAN_MOTION_DOT":-5.95e-6,"MEAN_MOTION_DDOT":0},{"OBJECT_NAME":"ONEWEB-0043","OBJECT_ID":"2020-008U","EPOCH":"2025-11-23T08:15:26.748576","MEAN_MOTION":13.1037349,"ECCENTRICITY":0.0001568,"INCLINATION":87.8805,"RA_OF_ASC_NODE":77.3002,"ARG_OF_PERICENTER":120.5628,"MEAN_ANOMALY":239.5654,"EPHEMERIS_TYPE":0,"CLASSIFICATION_TYPE":"U","NORAD_CAT_ID":45149,"ELEMENT_SET_NO":999,"REV_AT_EPOCH":28122,"BSTAR":-0.0014696,"MEAN_MOTION_DOT":-5.0e-6,"MEAN_MOTION_DDOT":0},{"OBJECT_NAME":"ONEWEB-0044","OBJECT_ID":"2020-008V","EPOCH":"2025-11-23T08:56:05.550144","MEAN_MOTION":13.10376714,"ECCENTRICITY":0.0001641,"INCLINATION":87.8807,"RA_OF_ASC_NODE":77.2856,"ARG_OF_PERICENTER":114.9904,"MEAN_ANOMALY":245.1394,"EPHEMERIS_TYPE":0,"CLASSIFICATION_TYPE":"U","NORAD_CAT_ID":45150,"ELEMENT_SET_NO":999,"REV_AT_EPOCH":28152,"BSTAR":0.0018267,"MEAN_MOTION_DOT":6.5e-6,"MEAN_MOTION_DDOT":0},{"OBJECT_NAME":"ONEWEB-0045","OBJECT_ID":"2020-008W","EPOCH":"2025-11-23T07:33:32.614848","MEAN_MOTION":13.11418984,"ECCENTRICITY":0.0001882,"INCLINATION":87.8881,"RA_OF_ASC_NODE":62.0381,"ARG_OF_PERICENTER":108.1856,"MEAN_ANOMALY":251.9477,"EPHEMERIS_TYPE":0,"CLASSIFICATION_TYPE":"U","NORAD_CAT_ID":45151,"ELEMENT_SET_NO":999,"REV_AT_EPOCH":28342,"BSTAR":0.00027591,"MEAN_MOTION_DOT":1.1e-6,"MEAN_MOTION_DDOT":0},{"OBJECT_NAME":"ONEWEB-0047","OBJECT_ID":"2020-008X","EPOCH":"2025-11-23T08:46:33.488832","MEAN_MOTION":13.10375452,"ECCENTRICITY":0.0001706,"INCLINATION":87.8803,"RA_OF_ASC_NODE":77.2972,"ARG_OF_PERICENTER":110.5318,"MEAN_ANOMALY":249.5993,"EPHEMERIS_TYPE":0,"CLASSIFICATION_TYPE":"U","NORAD_CAT_ID":45152,"ELEMENT_SET_NO":999,"REV_AT_EPOCH":28124,"BSTAR":0.0014073,"MEAN_MOTION_DOT":5.04e-6,"MEAN_MOTION_DDOT":0},{"OBJECT_NAME":"ONEWEB-0048","OBJECT_ID":"2020-008Y","EPOCH":"2025-11-23T06:49:23.761056","MEAN_MOTION":13.10378183,"ECCENTRICITY":0.0001642,"INCLINATION":87.8806,"RA_OF_ASC_NODE":77.3394,"ARG_OF_PERICENTER":103.7085,"MEAN_ANOMALY":256.4226,"EPHEMERIS_TYPE":0,"CLASSIFICATION_TYPE":"U","NORAD_CAT_ID":45153,"ELEMENT_SET_NO":999,"REV_AT_EPOCH":28084,"BSTAR":0.00053672,"MEAN_MOTION_DOT":2.0e-6,"MEAN_MOTION_DDOT":0},{"OBJECT_NAME":"ONEWEB-0049","OBJECT_ID":"2020-008Z","EPOCH":"2025-11-23T08:42:57.221856","MEAN_MOTION":13.10377859,"ECCENTRICITY":0.0001277,"INCLINATION":87.8801,"RA_OF_ASC_NODE":77.3139,"ARG_OF_PERICENTER":114.8404,"MEAN_ANOMALY":245.2856,"EPHEMERIS_TYPE":0,"CLASSIFICATION_TYPE":"U","NORAD_CAT_ID":45154,"ELEMENT_SET_NO":999,"REV_AT_EPOCH":28107,"BSTAR":0.00098508,"MEAN_MOTION_DOT":3.57e-6,"MEAN_MOTION_DDOT":0},{"OBJECT_NAME":"ONEWEB-0051","OBJECT_ID":"2020-008AA","EPOCH":"2025-11-23T07:31:05.766816","MEAN_MOTION":13.11418902,"ECCENTRICITY":0.0001764,"INCLINATION":87.8861,"RA_OF_ASC_NODE":62.0638,"ARG_OF_PERICENTER":104.2087,"MEAN_ANOMALY":255.9237,"EPHEMERIS_TYPE":0,"CLASSIFICATION_TYPE":"U","NORAD_CAT_ID":45155,"ELEMENT_SET_NO":999,"REV_AT_EPOCH":28410,"BSTAR":-0.00017359,"MEAN_MOTION_DOT":-4.9e-7,"MEAN_MOTION_DDOT":0},{"OBJECT_NAME":"ONEWEB-0052","OBJECT_ID":"2020-008AB","EPOCH":"2025-11-23T08:35:46.713120","MEAN_MOTION":13.10376822,"ECCENTRICITY":0.0001298,"INCLINATION":87.8812,"RA_OF_ASC_NODE":77.2732,"ARG_OF_PERICENTER":115.5245,"MEAN_ANOMALY":244.6016,"EPHEMERIS_TYPE":0,"CLASSIFICATION_TYPE":"U","NORAD_CAT_ID":45156,"ELEMENT_SET_NO":999,"REV_AT_EPOCH":28098,"BSTAR":0.00046839,"MEAN_MOTION_DOT":1.76e-6,"MEAN_MOTION_DDOT":0},{"OBJECT_NAME":"ONEWEB-0053","OBJECT_ID":"2020-008AC","EPOCH":"2025-11-23T08:10:39.598176","MEAN_MOTION":13.10372598,"ECCENTRICITY":0.0001926,"INCLINATION":87.8802,"RA_OF_ASC_NODE":77.3239,"ARG_OF_PERICENTER":113.0274,"MEAN_ANOMALY":247.1056,"EPHEMERIS_TYPE":0,"CLASSIFICATION_TYPE":"U","NORAD_CAT_ID":45157,"ELEMENT_SET_NO":999,"REV_AT_EPOCH":28095,"BSTAR":-0.0017411,"MEAN_MOTION_DOT":-5.95e-6,"MEAN_MOTION_DDOT":0},{"OBJECT_NAME":"ONEWEB-0054","OBJECT_ID":"2020-008AD","EPOCH":"2025-11-23T09:00:53.897184","MEAN_MOTION":13.1037277,"ECCENTRICITY":0.0001664,"INCLINATION":87.8802,"RA_OF_ASC_NODE":77.2893,"ARG_OF_PERICENTER":105.6556,"MEAN_ANOMALY":254.4755,"EPHEMERIS_TYPE":0,"CLASSIFICATION_TYPE":"U","NORAD_CAT_ID":45158,"ELEMENT_SET_NO":999,"REV_AT_EPOCH":28107,"BSTAR":0.0020782,"MEAN_MOTION_DOT":7.38e-6,"MEAN_MOTION_DDOT":0},{"OBJECT_NAME":"ONEWEB-0056","OBJECT_ID":"2020-008AE","EPOCH":"2025-11-23T08:33:23.152608","MEAN_MOTION":13.10376207,"ECCENTRICITY":0.0001509,"INCLINATION":87.8801,"RA_OF_ASC_NODE":77.2911,"ARG_OF_PERICENTER":104.6721,"MEAN_ANOMALY":255.4573,"EPHEMERIS_TYPE":0,"CLASSIFICATION_TYPE":"U","NORAD_CAT_ID":45159,"ELEMENT_SET_NO":999,"REV_AT_EPOCH":28122,"BSTAR":-1.6682e-5,"MEAN_MOTION_DOT":7.0e-8,"MEAN_MOTION_DDOT":0},{"OBJECT_NAME":"ONEWEB-0057","OBJECT_ID":"2020-008AF","EPOCH":"2025-11-23T08:44:08.216736","MEAN_MOTION":13.10378709,"ECCENTRICITY":0.0001602,"INCLINATION":87.8805,"RA_OF_ASC_NODE":77.3029,"ARG_OF_PERICENTER":111.0826,"MEAN_ANOMALY":249.0473,"EPHEMERIS_TYPE":0,"CLASSIFICATION_TYPE":"U","NORAD_CAT_ID":45160,"ELEMENT_SET_NO":999,"REV_AT_EPOCH":28139,"BSTAR":0.0011457,"MEAN_MOTION_DOT":4.13e-6,"MEAN_MOTION_DDOT":0}]
